satname,norad_id,inclination_deg,eccentricity,mean_motion_rev_per_day,perigee_km,apogee_km,l1,l2
STARLINK-1271,45217,53.0532,0.0001399,15.06401837,546.2370723279764,548.1747832791752,1 45217U 20012AR  25259.22732356  .00000511  00000+0  53216-4 0  9994,2 45217  53.0532  89.8096 0001399  83.0125 277.1023 15.06401837308828
STARLINK-1191,45222,53.0556,0.0001198,15.06391585,546.4076889743665,548.067008668344,1 45222U 20012AW  25259.50193574  .00000013  00000+0  19793-4 0  9993,2 45222  53.0556  68.5766 0001198  92.3830 267.7296 15.06391585309142
STARLINK-1212,45223,53.0554,0.0001378,15.06398252,546.2626015421693,548.1712290812302,1 45223U 20012AX  25259.18870632  .00000586  00000+0  58227-4 0  9995,2 45223  53.0554  70.6384 0001378  91.4245 268.6902 15.06398252309097
STARLINK-1215,45225,53.0542,8.25e-05,15.0639548,546.6540687229999,547.7967535208345,1 45225U 20012AZ  25259.60882265 -.00000365  00000+0 -55994-5 0  9995,2 45225  53.0542  68.0964 0000825  99.0937 261.0145 15.06395480309118
STARLINK-1217,45226,53.0458,0.0002009,15.85469394,313.6587115425509,316.3480153405817,1 45226U 20012BA  25259.58337963  .00325167  00000+0  12805-2 0  9992,2 45226  53.0458  21.8576 0002009 179.4301  21.1343 15.85469394  5936
STARLINK-1221,45227,53.0698,0.0004025,15.34928153,458.3811017860635,463.8867148672671,1 45227U 20012BB  25259.61337112  .00013608  00000+0  40626-3 0  9990,2 45227  53.0698  10.1363 0004025 166.3049 193.8062 15.34928153309919
STARLINK-1222,45228,53.055,0.0001282,15.06394704,546.3399576970587,548.1156212290771,1 45228U 20012BC  25259.17756220  .00001385  00000+0  11188-3 0  9997,2 45228  53.0550  70.0321 0001282  89.6270 270.4866 15.06394704308989
STARLINK-1226,45229,53.0549,0.0001767,15.06394392,546.0050335766327,548.4524578311648,1 45229U 20012BD  25259.47244744  .00000937  00000+0  81788-4 0  9990,2 45229  53.0549  68.7083 0001767  94.9991 265.1200 15.06394392309037
STARLINK-1227,45230,53.0549,0.0001309,15.06393245,546.3257302814636,548.1387919540248,1 45230U 20012BE  25259.46875674  .00000967  00000+0  83791-4 0  9992,2 45230  53.0549  68.7246 0001309  93.5916 266.5222 15.06393245309152
STARLINK-1238,45233,53.0381,7.44e-05,15.94180307,290.10319888734375,291.0955068566509,1 45233U 20012BH  25259.58337963  .00425496  82634-4  11254-2 0  9991,2 45233  53.0381  38.2301 0000744  11.9280 264.1501 15.94180307  6061
STARLINK-1246,45235,53.0535,0.0001362,15.06403263,546.2583262197786,548.1447884427962,1 45235U 20012BK  25259.28445699  .00001127  00000+0  94511-4 0  9998,2 45235  53.0535 109.5537 0001362  89.6444 270.4701 15.06403263308573
STARLINK-1247,45236,53.0416,3.17e-05,15.93093672,293.41997028156584,293.84296040226855,1 45236U 20012BL  25259.58337963  .00387384  69181-4  10860-2 0  9991,2 45236  53.0416  18.1648 0000317 301.0466 344.7410 15.93093672  6004
STARLINK-1270,45237,53.0544,0.0001265,15.06405131,546.3197776036386,548.0718868101867,1 45237U 20012BM  25258.75736447  .00001684  00000+0  13187-3 0  9992,2 45237  53.0544  71.9188 0001265  93.5055 266.6079 15.06405131309036
STARLINK-1279,45360,53.0545,0.000177,15.06411373,545.9509210254137,548.4024820757631,1 45360U 20019A   25259.24665945  .00002090  00000+0  15910-3 0  9993,2 45360  53.0545 199.7214 0001770  92.8947 267.2244 15.06411373303845
STARLINK-1301,45361,53.0551,0.0001528,15.06390309,546.1830618186796,548.2994574148179,1 45361U 20019B   25259.56643001  .00001402  00000+0  11300-3 0  9993,2 45361  53.0551 208.2879 0001528  84.1266 275.9897 15.06390309303761
STARLINK-1306,45362,53.0506,0.000872,15.54875935,396.6005679358095,408.4260220502765,1 45362U 20019C   25259.58337963  .00073919  00000+0  10834-2 0  9995,2 45362  53.0506 213.2613 0008720  62.0665 197.5733 15.54875935  5913
STARLINK-1262,45366,53.0541,0.0001537,15.06382271,546.2014608777445,548.3303297277616,1 45366U 20019G   25259.06700019  .00000850  00000+0  75965-4 0  9990,2 45366  53.0541 230.5293 0001537  78.1978 281.9183 15.06382271303412
STARLINK-1273,45367,53.0537,0.0001375,15.0639214,546.2834090719016,548.1878865500494,1 45367U 20019H   25259.22181217  .00000394  00000+0  45364-4 0  9995,2 45367  53.0537 229.8371 0001375  89.0133 271.1014 15.06392140303432
STARLINK-1276,45368,53.0538,0.0001447,15.06404791,546.1947784406202,548.1989700638296,1 45368U 20019J   25259.32499349  .00001051  00000+0  89445-4 0  9994,2 45368  53.0538 229.3731 0001447  87.1205 272.9950 15.06404791303454
STARLINK-1277,45369,53.0521,0.0001452,15.06402504,546.1983240532591,548.2094430458419,1 45369U 20019K   25259.18501166  .00000728  00000+0  67748-4 0  9992,2 45369  53.0521 230.6297 0001452  84.4728 275.6427 15.06402504303421
STARLINK-1281,45370,53.0528,0.0001467,15.06414651,546.1507130511363,548.1825971435419,1 45370U 20019L   25259.31394018  .00001757  00000+0  13680-3 0  9993,2 45370  53.0528 229.4232 0001467  84.9523 275.1634 15.06414651303453
STARLINK-1300,45374,53.0542,0.0001375,15.06391418,546.2856216137752,548.190099700455,1 45374U 20019Q   25259.33605043  .00001123  00000+0  94300-4 0  9998,2 45374  53.0542 229.3208 0001375  93.7790 266.3356 15.06391418303455
STARLINK-1302,45375,53.0542,0.0001284,15.06401664,546.3172439226219,548.0956721226421,1 45375U 20019R   25259.21810736  .00000518  00000+0  53684-4 0  9990,2 45375  53.0542 229.8540 0001284  76.1907 283.9225 15.06401664303437
STARLINK-1304,45376,53.0618,0.0003011,15.06363689,545.2375921987514,549.4081041193122,1 45376U 20019S   25259.30289707  .00006964  00000+0  48641-3 0  9996,2 45376  53.0618 229.4762 0003011  87.2740 272.8594 15.06363689303443
STARLINK-1305,45377,53.053,0.00016,15.06403533,546.0926757865136,548.3087838600568,1 45377U 20019T   25259.32869772  .00004051  00000+0  29065-3 0  9999,2 45377  53.0530 229.3542 0001600  85.5473 274.5699 15.06403533303457
STARLINK-1319,45379,53.0528,0.0001495,15.06408178,546.1511577972142,548.221829521819,1 45379U 20019V   25259.32131094  .00002775  00000+0  20505-3 0  9991,2 45379  53.0528 229.3904 0001495  89.1796 270.9364 15.06408178303457
STARLINK-1258,45381,53.0442,0.0006066,15.97718954,276.7097697052386,284.78833026107804,1 45381U 20019X   25259.58337963  .00443123  92786-4  96450-3 0  9990,2 45381  53.0442 156.0385 0006066 132.0065 156.7183 15.97718954  6018
STARLINK-1266,45383,53.0599,0.0001654,15.06409234,546.0378092322426,548.3287051733241,1 45383U 20019Z   25259.58857510 -.00005749  00000+0 -36725-3 0  9999,2 45383  53.0599 208.1884 0001654  89.6689 270.4489 15.06409234303766
STARLINK-1267,45384,53.0525,0.0001923,15.06393817,545.8987598357899,548.5622561793698,1 45384U 20019AA  25259.57388890  .00000353  00000+0  42633-4 0  9999,2 45384  53.0525 208.9104 0001923  81.4731 278.6475 15.06393817303759
STARLINK-1272,45386,53.054,0.0001177,15.06390791,546.4246654934432,548.0548991880069,1 45386U 20019AC  25259.58117732  .00000345  00000+0  42040-4 0  9990,2 45386  53.0540 208.2236 0001177  89.0220 271.0904 15.06390791303768
STARLINK-1274,45387,53.0367,0.000801,15.24287569,487.4218390716178,498.4292812930307,1 45387U 20019AD  25259.54752575  .00058351  00000+0  23509-2 0  9994,2 45387  53.0367 200.0838 0008010  52.2099 307.9622 15.24287569303879
STARLINK-1280,45388,53.053,0.0001309,15.06401881,546.299265578592,548.1123203217876,1 45388U 20019AE  25259.30656742  .00001420  00000+0  11423-3 0  9996,2 45388  53.0530 229.4571 0001309  88.9349 271.1790 15.06401881303434
STARLINK-1283,45389,53.0553,0.000142,15.06386339,546.2700218114778,548.2368326928172,1 45389U 20019AF  25259.55168660 -.00001907  00000+0 -10920-3 0  9994,2 45389  53.0553 208.3540 0001420  87.9989 272.1163 15.06386339303766
STARLINK-1284,45390,53.0528,0.0001594,15.06394167,546.1255318910698,548.333338710645,1 45390U 20019AG  25259.59223380  .00000678  00000+0  64395-4 0  9999,2 45390  53.0528 208.1719 0001594  90.6478 269.4693 15.06394167303767
STARLINK-1292,45394,53.0503,0.0005167,15.71134033,352.17544107499725,359.13414151211964,1 45394U 20019AL  25259.58337963  .00165165  00000+0  12632-2 0  9993,2 45394  53.0503 182.5948 0005167 123.5557 188.2195 15.71134033  5813
STARLINK-1297,45395,53.0557,0.0001996,15.06390937,545.8570297507904,548.6216399836685,1 45395U 20019AM  25259.56274219 -.00000926  00000+0 -43293-4 0  9990,2 45395  53.0557 208.3036 0001996  78.9656 281.1558 15.06390937302942
STARLINK-1307,45397,53.0524,0.000155,15.06395055,546.1532823169046,548.3001450681486,1 45397U 20019AP  25259.55537401  .00000478  00000+0  50991-4 0  9999,2 45397  53.0524 208.3349 0001550  86.4678 273.6488 15.06395055303584
STARLINK-1312,45398,53.0494,0.0011335,15.68864338,354.5076855000889,369.787911137877,1 45398U 20019AQ  25259.58337963  .00193053  00000+0  16120-2 0  9990,2 45398  53.0494 181.9452 0011335  66.5570 141.9050 15.68864338  5959
STARLINK-1255,45399,53.0513,9.51e-05,15.06412674,546.5141172721851,547.8313111798307,1 45399U 20019AR  25259.52311955  .00002581  00000+0  19201-3 0  9997,2 45399  53.0513 198.4812 0000951  81.3293 278.7804 15.06412674303708
STARLINK-1259,45403,53.0487,0.0010447,15.80953142,320.73837069716046,334.74963846813534,1 45403U 20019AV  25259.58337963  .00182797  00000+0  90379-3 0  9999,2 45403  53.0487 164.3822 0010447  71.8162 321.0571 15.80953142  5981
STARLINK-1260,45404,53.0555,0.0001382,15.06391564,546.28032644003,548.1944999278339,1 45404U 20019AW  25259.55629836  .00000195  00000+0  31987-4 0  9992,2 45404  53.0555 198.3360 0001382  87.6157 272.4991 15.06391564303617
STARLINK-1263,45405,53.0549,0.0001478,15.06414949,546.1421820399783,548.1893015304504,1 45405U 20019AX  25259.27614848  .00003302  00000+0  24034-3 0  9996,2 45405  53.0549 199.5895 0001478  87.2473 272.8685 15.06414949303572
STARLINK-1265,45406,53.054,0.0001829,15.0638697,545.9848397440483,548.5181468548972,1 45406U 20019AY  25259.54892838  .00001211  00000+0  10023-3 0  9994,2 45406  53.0540 198.3673 0001829  88.6987 271.4212 15.06386970303618
